KUIPER-00069            
1 64816U 25151A   25206.50001157  .00050028  00000+0  14250-2 0  9991
2 64816  51.8779 243.0857 0005526 165.0906 152.1382 15.35591483  2534
KUIPER-00070            
1 64817U 25151B   25206.50001157  .00051036  00000+0  14825-2 0  9990
2 64817  51.8773 243.1320 0005363 189.3429 104.5537 15.34968065  1370
KUIPER-00071            
1 64818U 25151C   25206.50001157  .00050591  00000+0  14451-2 0  9991
2 64818  51.8780 243.0971 0005467 170.7945 141.8494 15.35498162  1308
KUIPER-00072            
1 64819U 25151D   25206.50001157  .00050785  00000+0  14678-2 0  9998
2 64819  51.8770 243.1128 0004985 181.9952 120.4832 15.35130145  2482
KUIPER-00073            
1 64820U 25151E   25206.50001157  .00050995  00000+0  14659-2 0  9992
2 64820  51.8783 243.1135 0005341 178.8335 126.4098 15.35296690  1480
KUIPER-00074            
1 64821U 25151F   25206.50001157  .00051759  00000+0  14860-2 0  9996
2 64821  51.8772 243.1033 0005399 178.8837 128.1001 15.35329162  2425
KUIPER-00075            
1 64822U 25151G   25206.50001157  .00050581  00000+0  14508-2 0  9998
2 64822  51.8783 243.1030 0005160 170.2705 140.1448 15.35370296  1300
KUIPER-00076            
1 64823U 25151H   25206.50001157  .00050066  00000+0  14445-2 0  9997
2 64823  51.8770 243.1082 0005177 178.5653 126.1867 15.35189940  2657
KUIPER-00077            
1 64824U 25151J   25206.50001157  .00051397  00000+0  14895-2 0  9995
2 64824  51.8784 243.1269 0005755 185.3435 113.1533 15.35036138  1303
KUIPER-00078            
1 64825U 25151K   25206.50001157  .00050899  00000+0  14734-2 0  9994
2 64825  51.8776 243.1216 0005733 188.2564 111.2489 15.35076247  1436
KUIPER-00079            
1 64826U 25151L   25206.50001157  .00050825  00000+0  14415-2 0  9990
2 64826  51.8778 243.0811 0006035 164.0220 155.5906 15.35716097  1301
KUIPER-00080            
1 64827U 25151M   25206.50001157  .00050043  00000+0  14328-2 0  9996
2 64827  51.8782 243.1033 0005043 174.2615 135.7961 15.35431762  1554
KUIPER-00082            
1 64828U 25151N   25206.50001157  .00051280  00000+0  14623-2 0  9999
2 64828  51.8776 243.0911 0005450 169.8940 143.8541 15.35545496  1548
KUIPER-00083            
1 64829U 25151P   25206.50001157  .00051019  00000+0  14754-2 0  9995
2 64829  51.8771 243.1114 0005445 177.3350 125.8293 15.35107778  2602
KUIPER-00084            
1 64830U 25151Q   25206.50001157  .00051489  00000+0  14937-2 0  9991
2 64830  51.8780 243.1306 0005869 191.2033 104.5229 15.35002610  1308
KUIPER-00085            
1 64831U 25151R   25206.50001157  .00051046  00000+0  14493-2 0  9998
2 64831  51.8778 243.0830 0006031 164.9151 153.6968 15.35680836  2361
KUIPER-00086            
1 64832U 25151S   25206.50001157  .00051844  00000+0  15047-2 0  9991
2 64832  51.8772 243.1231 0005964 187.9871 110.2354 15.34984398  1300
KUIPER-00087            
1 64833U 25151T   25206.50001157  .00051587  00000+0  14777-2 0  9995
2 64833  51.8781 243.0963 0005505 166.5308 146.5644 15.35401081  2557
KUIPER-00089            
1 64834U 25151U   25206.50001157  .00050281  00000+0  14514-2 0  9995
2 64834  51.8783 243.1184 0005559 184.3836 118.2716 15.35171497  2493
KUIPER-00090            
1 64835U 25151V   25206.50001157  .00050894  00000+0  14802-2 0  9996
2 64835  51.8779 243.1324 0005967 193.0832 101.8312 15.34927271  1308
KUIPER-00091            
1 64836U 25151W   25206.50001157  .00050890  00000+0  14481-2 0  9996
2 64836  51.8777 243.0840 0005902 165.8486 151.3254 15.35613187  2361
KUIPER-00092            
1 64837U 25151X   25206.50001157  .00050755  00000+0  14542-2 0  9995
2 64837  51.8773 243.0969 0005475 173.8268 136.3754 15.35401725  1676
KUIPER-00093            
1 64838U 25151Y   25206.50001157  .00051152  00000+0  14732-2 0  9999
2 64838  51.8784 243.1185 0005216 177.2272 125.4507 15.35236650  2338
KUIPER-00094            
1 64839U 25151Z   25206.50001157  .00051110  00000+0  14608-2 0  9996
2 64839  51.8774 243.0951 0005277 173.0699 138.2904 15.35475770  1646
2025-135BT              
1 64840U 25135BT  25206.51305378  .00001591  00000+0  16062-3 0  9998
2 64840  97.7479 320.4024 0005441   0.8140 359.3087 14.92458890  5155
2025-135BU              
1 64841U 25135BU  25206.51936327  .00006784  00000+0  66303-3 0  9995
2 64841  97.7503 320.3958 0007695 224.8851 135.1747 14.92662268  5158
STARLINK-34723          
1 64842U 25152A   25206.50001157 -.00801256  19687-3 -25922-2 0  9993
2 64842  97.5957  58.2264 0001257  82.1153  82.8866 15.90788476  1699
STARLINK-34725          
1 64843U 25152B   25206.50001157 -.00828064  20951-3 -26686-2 0  9994
2 64843  97.5957  58.2274 0001352  71.7980  95.0415 15.90867951  1589
STARLINK-34709          
1 64844U 25152C   25206.50001157 -.00829816  21048-3 -26650-2 0  9990
2 64844  97.5957  58.2280 0001187  76.6274  92.0653 15.90936802  1698
STARLINK-34706          
1 64845U 25152D   25206.50001157 -.00840689  21583-3 -26895-2 0  9997
2 64845  97.5959  58.2291 0001233  72.8574  97.9124 15.91014238  1582
STARLINK-34736          
1 64846U 25152E   25206.50001157 -.00852389  22163-3 -27164-2 0  9993
2 64846  97.5958  58.2298 0001172  92.2210  80.5960 15.91092046  1583
STARLINK-34746          
1 64847U 25152F   25206.50001157 -.00862240  22661-3 -27371-2 0  9994
2 64847  97.5960  58.2307 0001209  67.4739 107.3567 15.91169877  1587
STARLINK-34748          
1 64848U 25152G   25206.50001157 -.00881187  23618-3 -27855-2 0  9996
2 64848  97.5960  58.2318 0001182  71.7160 105.2568 15.91255091  1588
STARLINK-34756          
1 64849U 25152H   25206.50001157 -.00886400  23896-3 -27920-2 0  9991
2 64849  97.5959  58.2327 0001209  69.5939 109.3457 15.91325705  1588
STARLINK-34757          
1 64850U 25152J   25206.50001157 -.00902021  24707-3 -28294-2 0  9998
2 64850  97.5961  58.2338 0001235  84.4372  96.6080 15.91409374  1586
STARLINK-34722          
1 64851U 25152K   25206.50001157 -.00908904  25077-3 -28404-2 0  9999
2 64851  97.5961  58.2343 0001230  87.7106  95.3701 15.91483190  1370
STARLINK-34564          
1 64852U 25152L   25206.50001157 -.00917737  25553-3 -28572-2 0  9999
2 64852  97.5962  58.2354 0001368  71.2107 113.8006 15.91557893  1584
STARLINK-34676          
1 64853U 25152M   25206.50001157 -.00927385  26075-3 -28758-2 0  9996
2 64853  97.5962  58.2363 0001370  71.3642 115.7373 15.91636787  1581
STARLINK-34682          
1 64854U 25152N   25206.50001157 -.00930991  26283-3 -28767-2 0  9995
2 64854  97.5963  58.2371 0001165  83.5641 105.5960 15.91707451  1584
STARLINK-34631          
1 64855U 25152P   25206.50001157 -.00950536  27341-3 -29253-2 0  9990
2 64855  97.5963  58.2379 0001197  84.9588 106.2244 15.91788581  1589
STARLINK-34578          
1 64856U 25152Q   25206.50001157 -.00956617  27687-3 -29332-2 0  9998
2 64856  97.5964  58.2388 0001138  89.9119 103.2741 15.91861320  1583
STARLINK-34683          
1 64857U 25152R   25206.50001157 -.00968330  28343-3 -29575-2 0  9993
2 64857  97.5963  58.2395 0001465  97.8178  97.3523 15.91938535  1581
STARLINK-34654          
1 64858U 25152S   25206.50001157 -.00980166  29013-3 -29823-2 0  9996
2 64858  97.5964  58.2405 0001170  92.2291 105.0291 15.92014824  1589
STARLINK-34575          
1 64859U 25152T   25206.50001157 -.00984205  29257-3 -29832-2 0  9995
2 64859  97.5965  58.2415 0001254 103.3827  95.9613 15.92089318  1589
STARLINK-34570          
1 64860U 25152U   25206.50001157 -.01004130  30390-3 -30323-2 0  9995
2 64860  97.5967  58.2424 0001284  82.5755 118.5907 15.92164236  1585
STARLINK-34651          
1 64861U 25152V   25206.50001157 -.01019263  31271-3 -30661-2 0  9993
2 64861  97.5968  58.2431 0001320  84.2382 118.9528 15.92241492  1584
STARLINK-34684          
1 64862U 25152W   25206.50001157 -.01021647  31430-3 -30616-2 0  9990
2 64862  97.5968  58.2443 0001245 103.2811 102.1345 15.92315836  1589
STARLINK-34690          
1 64863U 25152X   25206.50001157 -.01045244  32818-3 -31195-2 0  9994
2 64863  97.5971  58.2454 0001266  73.6093 133.8908 15.92398525  1583
STARLINK-34628          
1 64864U 25152Y   25206.50001157 -.01200073  42450-3 -35603-2 0  9999
2 64864  97.5975  58.2466 0001259  95.8080 113.8756 15.92536033  1470
STARLINK-34544          
1 64865U 25152Z   25206.50001157 -.01090372  35552-3 -32284-2 0  9996
2 64865  97.5975  58.2470 0001135  92.5887 119.0208 15.92559216  1476
2025-153A               
1 64866U 25153A   25205.12580773  .00000048  00000+0  00000+0 0  9993
2 64866   9.7176  89.2212 1938114 184.0458  11.5544  7.31859725   101
2025-153B               
1 64867U 25153B   25205.11713200  .00000048  00000+0  00000+0 0  9996
2 64867   9.7188  89.2292 1940420 183.8195 349.3239  7.31983586    84
2025-153C               
1 64868U 25153C   25205.12348477  .00000049  00000+0  00000+0 0  9999
2 64868   9.7176  89.1432 1940844 184.1778   7.1773  7.32308429    88
2025-154A               
1 64869U 25154A   25206.47733297  .00003501  00000+0  35506-3 0  9997
2 64869  97.7156 272.5289 0004635 225.5601 134.5238 14.91506385   259
2025-154B               
1 64870U 25154B   25206.47666896  .00001516  00000+0  15465-3 0  9995
2 64870  97.7148 272.5297 0004121 262.6310  97.4441 14.92102540   259
2025-154C               
1 64871U 25154C   25206.40954949 -.00000349  00000+0 -28902-4 0  9994
2 64871  97.7135 272.4642 0004149 265.3596  94.7149 14.92155569   248
2025-154D               
1 64872U 25154D   25206.47655922  .00001475  00000+0  15027-3 0  9993
2 64872  97.7131 272.5297 0004111 268.3304  91.7444 14.92202280   249
2025-154E               
1 64873U 25154E   25206.47637959  .00001447  00000+0  14687-3 0  9994
2 64873  97.7152 272.5297 0005044 272.6831  87.3811 14.92362112   253
2025-154F               
1 64874U 25154F   25206.51500504  .00006897  00000+0  34882-3 0  9998
2 64874  97.4418 272.4443 0002854  22.5935 337.5423 15.17351737   259
